CTC2_L_00634007-03
1 10062U 25208RV  26075.70050926  .00000000  00000+0  00000-0 0  9994
2 10062  70.0000 180.0000 0000000   0.0000 144.0000  4.33913782    17
CTC2_L_00634007-04
1 10063U 23001CQ  26075.70050926  .00000000  00000+0  00000-0 0  9994
2 10063  70.0000 180.0000 0000000   0.0000 180.0000  4.33913782    18
CTC2_L_00634007-05
1 10064U 24472IE  26075.70050926  .00000000  00000+0  00000-0 0  9998
2 10064  70.0000 180.0000 0000000   0.0000 216.0000  4.33913782    19
CTC2_L_00634007-06
1 10065U 24254PG  26075.70050926  .00000000  00000+0  00000-0 0  9997
2 10065  70.0000 180.0000 0000000   0.0000 252.0000  4.33913782    10
CTC2_L_00634007-07
1 10066U 26977XW  26075.70050926  .00000000  00000+0  00000-0 0  9992
2 10066  70.0000 180.0000 0000000   0.0000 288.0000  4.33913782    10
CTC2_L_00634007-08
1 10067U 25056HX  26075.70050926  .00000000  00000+0  00000-0 0  9990
2 10067  70.0000 180.0000 0000000   0.0000 324.0000  4.33913782    12
CTC2_L_00634007-09
1 10068U 23802JD  26075.70050926  .00000000  00000+0  00000-0 0  9998
2 10068  70.0000 180.0000 0000000   0.0000   0.0000  4.33913782    14
CTC2_L_00634007-10
1 10069U 22466TH  26075.70050926  .00000000  00000+0  00000-0 0  9994
2 10069  70.0000 180.0000 0000000   0.0000  36.0000  4.33913782    14
CTC2_L_00634008-01
1 10070U 26553NY  26075.70050926  .00000000  00000+0  00000-0 0  9997
2 10070  70.0000 210.0000 0000000   0.0000  84.0000  4.33913782    13
CTC2_L_00634008-02
1 10071U 24601GL  26075.70050926  .00000000  00000+0  00000-0 0  9990
2 10071  70.0000 210.0000 0000000   0.0000 120.0000  4.33913782    15
CTC2_L_00634008-03
1 10072U 23329ZD  26075.70050926  .00000000  00000+0  00000-0 0  9997
2 10072  70.0000 210.0000 0000000   0.0000 156.0000  4.33913782    15
CTC2_L_00634008-04
1 10073U 25087FS  26075.70050926  .00000000  00000+0  00000-0 0  9991
2 10073  70.0000 210.0000 0000000   0.0000 192.0000  4.33913782    16
CTC2_L_00634008-05
1 10074U 22550WJ  26075.70050926  .00000000  00000+0  00000-0 0  9994
2 10074  70.0000 210.0000 0000000   0.0000 228.0000  4.33913782    17
CTC2_L_00634008-06
1 10075U 24587RC  26075.70050926  .00000000  00000+0  00000-0 0  9997
2 10075  70.0000 210.0000 0000000   0.0000 264.0000  4.33913782    18
CTC2_L_00634008-07
1 10076U 26082DI  26075.70050926  .00000000  00000+0  00000-0 0  9990
2 10076  70.0000 210.0000 0000000   0.0000 300.0000  4.33913782    10
CTC2_L_00634008-08
1 10077U 26604RJ  26075.70050926  .00000000  00000+0  00000-0 0  9991
2 10077  70.0000 210.0000 0000000   0.0000 336.0000  4.33913782    10
CTC2_L_00634008-09
1 10078U 24426HX  26075.70050926  .00000000  00000+0  00000-0 0  9992
2 10078  70.0000 210.0000 0000000   0.0000  12.0000  4.33913782    12
CTC2_L_00634008-10
1 10079U 26561Y   26075.70050926  .00000000  00000+0  00000-0 0  9995
2 10079  70.0000 210.0000 0000000   0.0000  48.0000  4.33913782    12
CTC2_L_00634009-01
1 10080U 25652CA  26075.70050926  .00000000  00000+0  00000-0 0  9997
2 10080  70.0000 240.0000 0000000   0.0000  96.0000  4.33913782    10
CTC2_L_00634009-02
1 10081U 22175CZ  26075.70050926  .00000000  00000+0  00000-0 0  9995
2 10081  70.0000 240.0000 0000000   0.0000 132.0000  4.33913782    12
CTC2_L_00634009-03
1 10082U 25569OI  26075.70050926  .00000000  00000+0  00000-0 0  9996
2 10082  70.0000 240.0000 0000000   0.0000 168.0000  4.33913782    12
CTC2_L_00634009-04
1 10083U 22869KS  26075.70050926  .00000000  00000+0  00000-0 0  9997
2 10083  70.0000 240.0000 0000000   0.0000 204.0000  4.33913782    14
CTC2_L_00634009-05
1 10084U 26462TV  26075.70050926  .00000000  00000+0  00000-0 0  9991
2 10084  70.0000 240.0000 0000000   0.0000 240.0000  4.33913782    15
CTC2_L_00634009-06
1 10085U 26243IQ  26075.70050926  .00000000  00000+0  00000-0 0  9999
2 10085  70.0000 240.0000 0000000   0.0000 276.0000  4.33913782    15
CTC2_L_00634009-07
1 10086U 24887TL  26075.70050926  .00000000  00000+0  00000-0 0  9992
2 10086  70.0000 240.0000 0000000   0.0000 312.0000  4.33913782    17
CTC2_L_00634009-08
1 10087U 25953QE  26075.70050926  .00000000  00000+0  00000-0 0  9998
2 10087  70.0000 240.0000 0000000   0.0000 348.0000  4.33913782    17
CTC2_L_00634009-09
1 10088U 24002GT  26075.70050926  .00000000  00000+0  00000-0 0  9993
2 10088  70.0000 240.0000 0000000   0.0000  24.0000  4.33913782    19
CTC2_L_00634009-10
1 10089U 25755BO  26075.70050926  .00000000  00000+0  00000-0 0  9990
2 10089  70.0000 240.0000 0000000   0.0000  60.0000  4.33913782    10
CTC2_L_00634010-01
1 10090U 26854XS  26075.70050926  .00000000  00000+0  00000-0 0  9993
2 10090  70.0000 270.0000 0000000   0.0000 108.0000  4.33913782    18
CTC2_L_00634010-02
1 10091U 26050WB  26075.70050926  .00000000  00000+0  00000-0 0  9992
2 10091  70.0000 270.0000 0000000   0.0000 144.0000  4.33913782    19
CTC2_L_00634010-03
1 10092U 24698SU  26075.70050926  .00000000  00000+0  00000-0 0  9999
2 10092  70.0000 270.0000 0000000   0.0000 180.0000  4.33913782    10
CTC2_L_00634010-04
1 10093U 26028SY  26075.70050926  .00000000  00000+0  00000-0 0  9999
2 10093  70.0000 270.0000 0000000   0.0000 216.0000  4.33913782    11
CTC2_L_00634010-05
1 10094U 26037IV  26075.70050926  .00000000  00000+0  00000-0 0  9990
2 10094  70.0000 270.0000 0000000   0.0000 252.0000  4.33913782    12
CTC2_L_00634010-06
1 10095U 22285HO  26075.70050926  .00000000  00000+0  00000-0 0  9992
2 10095  70.0000 270.0000 0000000   0.0000 288.0000  4.33913782    12
CTC2_L_00634010-07
1 10096U 24208GJ  26075.70050926  .00000000  00000+0  00000-0 0  9990
2 10096  70.0000 270.0000 0000000   0.0000 324.0000  4.33913782    14
CTC2_L_00634010-08
1 10097U 24549FY  26075.70050926  .00000000  00000+0  00000-0 0  9999
2 10097  70.0000 270.0000 0000000   0.0000   0.0000  4.33913782    16
CTC2_L_00634010-09
1 10098U 23665AW  26075.70050926  .00000000  00000+0  00000-0 0  9998
2 10098  70.0000 270.0000 0000000   0.0000  36.0000  4.33913782    16
CTC2_L_00634010-10
1 10099U 23003YS  26075.70050926  .00000000  00000+0  00000-0 0  9995
2 10099  70.0000 270.0000 0000000   0.0000  72.0000  4.33913782    17
CTC2_L_00634011-01
1 10100U 23315YD  26075.70050926  .00000000  00000+0  00000-0 0  9994
2 10100  70.0000 300.0000 0000000   0.0000 120.0000  4.33913782    18
CTC2_L_00634011-02
1 10101U 26609CK  26075.70050926  .00000000  00000+0  00000-0 0  9994
2 10101  70.0000 300.0000 0000000   0.0000 156.0000  4.33913782    18
CTC2_L_00634011-03
1 10102U 24397DY  26075.70050926  .00000000  00000+0  00000-0 0  9997
2 10102  70.0000 300.0000 0000000   0.0000 192.0000  4.33913782    19
CTC2_L_00634011-04
1 10103U 23183QZ  26075.70050926  .00000000  00000+0  00000-0 0  9990
2 10103  70.0000 300.0000 0000000   0.0000 228.0000  4.33913782    10
CTC2_L_00634011-05
1 10104U 22870YN  26075.70050926  .00000000  00000+0  00000-0 0  9993
2 10104  70.0000 300.0000 0000000   0.0000 264.0000  4.33913782    11
CTC2_L_00634011-06
1 10105U 23095TO  26075.70050926  .00000000  00000+0  00000-0 0  9994
2 10105  70.0000 300.0000 0000000   0.0000 300.0000  4.33913782    13
CTC2_L_00634011-07
1 10106U 25574QZ  26075.70050926  .00000000  00000+0  00000-0 0  9999
2 10106  70.0000 300.0000 0000000   0.0000 336.0000  4.33913782    13
CTC2_L_00634011-08
1 10107U 24611OI  26075.70050926  .00000000  00000+0  00000-0 0  9991
2 10107  70.0000 300.0000 0000000   0.0000  12.0000  4.33913782    15
CTC2_L_00634011-09
1 10108U 24275UQ  26075.70050926  .00000000  00000+0  00000-0 0  9998
2 10108  70.0000 300.0000 0000000   0.0000  48.0000  4.33913782    15
CTC2_L_00634011-10
1 10109U 25629LS  26075.70050926  .00000000  00000+0  00000-0 0  9993
2 10109  70.0000 300.0000 0000000   0.0000  84.0000  4.33913782    16
CTC2_L_00634012-01
1 10110U 24817VT  26075.70050926  .00000000  00000+0  00000-0 0  9993
2 10110  70.0000 330.0000 0000000   0.0000 132.0000  4.33913782    15
CTC2_L_00634012-02
1 10111U 23553BR  26075.70050926  .00000000  00000+0  00000-0 0  9990
2 10111  70.0000 330.0000 0000000   0.0000 168.0000  4.33913782    15
CTC2_L_00634012-03
1 10112U 24546KZ  26075.70050926  .00000000  00000+0  00000-0 0  9994
2 10112  70.0000 330.0000 0000000   0.0000 204.0000  4.33913782    17
CTC2_L_00634012-04
1 10113U 24080LR  26075.70050926  .00000000  00000+0  00000-0 0  9998
2 10113  70.0000 330.0000 0000000   0.0000 240.0000  4.33913782    18
CTC2_L_00634012-05
1 10114U 26477JL  26075.70050926  .00000000  00000+0  00000-0 0  9991
2 10114  70.0000 330.0000 0000000   0.0000 276.0000  4.33913782    18
CTC2_L_00634012-06
1 10115U 22238HB  26075.70050926  .00000000  00000+0  00000-0 0  9993
2 10115  70.0000 330.0000 0000000   0.0000 312.0000  4.33913782    10
CTC2_L_00634012-07
1 10116U 25277MU  26075.70050926  .00000000  00000+0  00000-0 0  9990
2 10116  70.0000 330.0000 0000000   0.0000 348.0000  4.33913782    10
CTC2_L_00634012-08
1 10117U 23712UQ  26075.70050926  .00000000  00000+0  00000-0 0  9993
2 10117  70.0000 330.0000 0000000   0.0000  24.0000  4.33913782    12
CTC2_L_00634012-09
1 10118U 23258KR  26075.70050926  .00000000  00000+0  00000-0 0  9999
2 10118  70.0000 330.0000 0000000   0.0000  60.0000  4.33913782    13
CTC2_L_00634012-10
1 10119U 22714HT  26075.70050926  .00000000  00000+0  00000-0 0  9996
2 10119  70.0000 330.0000 0000000   0.0000  96.0000  4.33913782    13
